{"type": "FeatureCollection", "features": [ {"type": "Feature", "properties": {"norad_id": 43623, "name": "BEIDOU-3 M14 (C33)", "group": "beidou", "lat": 19.933265486435637, "lon": 83.05955298399213, "alt_km": 21520.08260480931, "timestamp": "2025-12-02T08:59:32.979531+00:00", "meta": {"OBJECT_NAME": "BEIDOU-3 M14 (C33)", "OBJECT_ID": "2018-072B", "EPOCH": "2025-12-01T19:14:30.967584", "MEAN_MOTION": 1.86230723, "ECCENTRICITY": 0.0003032, "INCLINATION": 56.4513, "RA_OF_ASC_NODE": 69.1766, "ARG_OF_PERICENTER": 336.0963, "MEAN_ANOMALY": 23.8927, "EPHEMERIS_TYPE": 0, "CLASSIFICATION_TYPE": "U", "NORAD_CAT_ID": 43623, "ELEMENT_SET_NO": 999, "REV_AT_EPOCH": 4897, "BSTAR": 0, "MEAN_MOTION_DOT": -4.3e-07, "MEAN_MOTION_DDOT": 0}, "tle": {"line1": "1 43623U 18072B   25335.80174731 -.00000043  00000+0  00000+0 0  9991", "line2": "2 43623  56.4513  69.1766 0003032 336.0963  23.8927  1.86230723 48978"}}, "geometry": {"type": "Point", "coordinates": [83.05955298399213, 19.933265486435637]}}, {"type": "Feature", "properties": {"norad_id": 43647, "name": "BEIDOU-3 M16 (C35)", "group": "beidou", "lat": -53.46240180075655, "lon": -129.3184968010182, "alt_km": 21537.10119376351, "timestamp": "2025-12-02T08:59:32.979542+00:00", "meta": {"OBJECT_NAME": "BEIDOU-3 M16 (C35)", "OBJECT_ID": "2018-078A", "EPOCH": "2025-12-01T23:02:01.408992", "MEAN_MOTION": 1.86232129, "ECCENTRICITY": 0.0006947, "INCLINATION": 54.272, "RA_OF_ASC_NODE": 306.8982, "ARG_OF_PERICENTER": 18.3506, "MEAN_ANOMALY": 341.6639, "EPHEMERIS_TYPE": 0, "CLASSIFICATION_TYPE": "U", "NORAD_CAT_ID": 43647, "ELEMENT_SET_NO": 999, "REV_AT_EPOCH": 4848, "BSTAR": 0, "MEAN_MOTION_DOT": -6.1e-07, "MEAN_MOTION_DDOT": 0}, "tle": {"line1": "1 43647U 18078A   25335.95973853 -.00000061  00000+0  00000+0 0  9991", "line2": "2 43647  54.2720 306.8982 0006947  18.3506 341.6639  1.86232129 48481"}}, "geometry": {"type": "Point", "coordinates": [-129.3184968010182, -53.46240180075655]}}, {"type": "Feature", "properties": {"norad_id": 43648, "name": "BEIDOU-3 M15 (C34)", "group": "beidou", "lat": -9.425987137131557, "lon": 133.72714737343662, "alt_km": 21539.305929156853, "timestamp": "2025-12-02T08:59:32.979554+00:00", "meta": {"OBJECT_NAME": "BEIDOU-3 M15 (C34)", "OBJECT_ID": "2018-078B", "EPOCH": "2025-12-01T00:21:40.976640", "MEAN_MOTION": 1.86232, "ECCENTRICITY": 0.0003569, "INCLINATION": 54.2686, "RA_OF_ASC_NODE": 306.9322, "ARG_OF_PERICENTER": 17.0419, "MEAN_ANOMALY": 342.9634, "EPHEMERIS_TYPE": 0, "CLASSIFICATION_TYPE": "U", "NORAD_CAT_ID": 43648, "ELEMENT_SET_NO": 999, "REV_AT_EPOCH": 4848, "BSTAR": 0, "MEAN_MOTION_DOT": -5.6e-07, "MEAN_MOTION_DDOT": 0}, "tle": {"line1": "1 43648U 18078B   25335.01505760 -.00000056  00000+0  00000+0 0  9991", "line2": "2 43648  54.2686 306.9322 0003569  17.0419 342.9634  1.86232000 48485"}}, "geometry": {"type": "Point", "coordinates": [133.72714737343662, -9.425987137131557]}}, {"type": "Feature", "properties": {"norad_id": 43683, "name": "BEIDOU-3 G1 (C59)", "group": "beidou", "lat": -2.2872495165049864, "lon": -13.652907412758692, "alt_km": 35794.6112020496, "timestamp": "2025-12-02T08:59:32.979566+00:00", "meta": {"OBJECT_NAME": "BEIDOU-3 G1 (C59)", "OBJECT_ID": "2018-085A", "EPOCH": "2025-12-02T04:10:35.246784", "MEAN_MOTION": 1.00274165, "ECCENTRICITY": 0.0002115, "INCLINATION": 2.5788, "RA_OF_ASC_NODE": 103.2931, "ARG_OF_PERICENTER": 61.3809, "MEAN_ANOMALY": 109.2811, "EPHEMERIS_TYPE": 0, "CLASSIFICATION_TYPE": "U", "NORAD_CAT_ID": 43683, "ELEMENT_SET_NO": 999, "REV_AT_EPOCH": 2608, "BSTAR": 0, "MEAN_MOTION_DOT": -2.56e-06, "MEAN_MOTION_DDOT": 0}, "tle": {"line1": "1 43683U 18085A   25336.17401906 -.00000256  00000+0  00000+0 0  9995", "line2": "2 43683   2.5788 103.2931 0002115  61.3809 109.2811  1.00274165 26085"}}, "geometry": {"type": "Point", "coordinates": [-13.652907412758692, -2.2872495165049864]}}, {"type": "Feature", "properties": {"norad_id": 43706, "name": "BEIDOU-3 M17 (C36)", "group": "beidou", "lat": 53.89957900686571, "lon": -88.90561446200013, "alt_km": 21535.486616265644, "timestamp": "2025-12-02T08:59:32.979578+00:00", "meta": {"OBJECT_NAME": "BEIDOU-3 M17 (C36)", "OBJECT_ID": "2018-093A", "EPOCH": "2025-11-30T05:23:59.265600", "MEAN_MOTION": 1.86228182, "ECCENTRICITY": 0.00063751, "INCLINATION": 54.1727, "RA_OF_ASC_NODE": 189.0472, "ARG_OF_PERICENTER": 306.0351, "MEAN_ANOMALY": 138.1008, "EPHEMERIS_TYPE": 0, "CLASSIFICATION_TYPE": "U", "NORAD_CAT_ID": 43706, "ELEMENT_SET_NO": 999, "REV_AT_EPOCH": 4783, "BSTAR": 0, "MEAN_MOTION_DOT": 1.11e-06, "MEAN_MOTION_DDOT": 0}, "tle": {"line1": "1 43706U 18093A   25334.22499150  .00000111  00000+0  00000+0 0  9991", "line2": "2 43706  54.1727 189.0472 0006375 306.0351 138.1008  1.86228182 47839"}}, "geometry": {"type": "Point", "coordinates": [-88.90561446200013, 53.89957900686571]}}, {"type": "Feature", "properties": {"norad_id": 43707, "name": "BEIDOU-3 M18 (C37)", "group": "beidou", "lat": 1.3878568460130067, "lon": 7.971988101800966, "alt_km": 21546.183194500238, "timestamp": "2025-12-02T08:59:32.979589+00:00", "meta": {"OBJECT_NAME": "BEIDOU-3 M18 (C37)", "OBJECT_ID": "2018-093B", "EPOCH": "2025-12-01T00:50:13.072128", "MEAN_MOTION": 1.86226416, "ECCENTRICITY": 0.0006364, "INCLINATION": 54.1734, "RA_OF_ASC_NODE": 189.0115, "ARG_OF_PERICENTER": 350.6822, "MEAN_ANOMALY": 9.3993, "EPHEMERIS_TYPE": 0, "CLASSIFICATION_TYPE": "U", "NORAD_CAT_ID": 43707, "ELEMENT_SET_NO": 999, "REV_AT_EPOCH": 4784, "BSTAR": 0, "MEAN_MOTION_DOT": 1.18e-06, "MEAN_MOTION_DDOT": 0}, "tle": {"line1": "1 43707U 18093B   25335.03487352  .00000118  00000+0  00000+0 0  9990", "line2": "2 43707  54.1734 189.0115 0006364 350.6822   9.3993  1.86226416 47849"}}, "geometry": {"type": "Point", "coordinates": [7.971988101800966, 1.3878568460130067]}}, {"type": "Feature", "properties": {"norad_id": 44204, "name": "BEIDOU-3 IGSO-1 (C38)", "group": "beidou", "lat": -56.75375844904709, "lon": -29.779309411210576, "alt_km": 35741.484402458525, "timestamp": "2025-12-02T08:59:32.979600+00:00", "meta": {"OBJECT_NAME": "BEIDOU-3 IGSO-1 (C38)", "OBJECT_ID": "2019-023A", "EPOCH": "2025-11-19T14:15:02.708640", "MEAN_MOTION": 1.00252177, "ECCENTRICITY": 0.0026966, "INCLINATION": 58.4003, "RA_OF_ASC_NODE": 39.8168, "ARG_OF_PERICENTER": 221.2202, "MEAN_ANOMALY": 126.9723, "EPHEMERIS_TYPE": 0, "CLASSIFICATION_TYPE": "U", "NORAD_CAT_ID": 44204, "ELEMENT_SET_NO": 999, "REV_AT_EPOCH": 510, "BSTAR": 0, "MEAN_MOTION_DOT": -2.26e-06, "MEAN_MOTION_DDOT": 0}, "tle": {"line1": "1 44204U 19023A   25323.59378135 -.00000226  00000+0  00000+0 0  9994", "line2": "2 44204  58.4003  39.8168 0026966 221.2202 126.9723  1.00252177  5102"}}, "geometry": {"type": "Point", "coordinates": [-29.779309411210576, -56.75375844904709]}}, {"type": "Feature", "properties": {"norad_id": 44231, "name": "BEIDOU-2 G8 (C01)", "group": "beidou", "lat": -1.6091286051322522, "lon": -9.046320950333559, "alt_km": 35754.459425048844, "timestamp": "2025-12-02T08:59:32.979615+00:00", "meta": {"OBJECT_NAME": "BEIDOU-2 G8 (C01)", "OBJECT_ID": "2019-027A", "EPOCH": "2025-12-02T04:11:57.616224", "MEAN_MOTION": 1.00270607, "ECCENTRICITY": 0.0008225, "INCLINATION": 1.6329, "RA_OF_ASC_NODE": 74.6942, "ARG_OF_PERICENTER": 255.1212, "MEAN_ANOMALY": 309.0345, "EPHEMERIS_TYPE": 0, "CLASSIFICATION_TYPE": "U", "NORAD_CAT_ID": 44231, "ELEMENT_SET_NO": 999, "REV_AT_EPOCH": 2410, "BSTAR": 0, "MEAN_MOTION_DOT": -2.26e-06, "MEAN_MOTION_DDOT": 0}, "tle": {"line1": "1 44231U 19027A   25336.17497241 -.00000226  00000+0  00000+0 0  9996", "line2": "2 44231   1.6329  74.6942 0008225 255.1212 309.0345  1.00270607 24108"}}, "geometry": {"type": "Point", "coordinates": [-9.046320950333559, -1.6091286051322522]}}, {"type": "Feature", "properties": {"norad_id": 44337, "name": "BEIDOU-3 IGSO-2 (C39)", "group": "beidou", "lat": 12.24901467187335, "lon": -28.10246250160726, "alt_km": 35658.35894113318, "timestamp": "2025-12-02T08:59:32.979626+00:00", "meta": {"OBJECT_NAME": "BEIDOU-3 IGSO-2 (C39)", "OBJECT_ID": "2019-035A", "EPOCH": "2025-12-01T05:17:49.661952", "MEAN_MOTION": 1.00274502, "ECCENTRICITY": 0.00376064, "INCLINATION": 55.2223, "RA_OF_ASC_NODE": 160.6035, "ARG_OF_PERICENTER": 202.2564, "MEAN_ANOMALY": 266.4761, "EPHEMERIS_TYPE": 0, "CLASSIFICATION_TYPE": "U", "NORAD_CAT_ID": 44337, "ELEMENT_SET_NO": 999, "REV_AT_EPOCH": 2368, "BSTAR": 0, "MEAN_MOTION_DOT": -2.5e-07, "MEAN_MOTION_DDOT": 0}, "tle": {"line1": "1 44337U 19035A   25335.22071368 -.00000025  00000+0  00000+0 0  9992", "line2": "2 44337  55.2223 160.6035 0037606 202.2564 266.4761  1.00274502 23688"}}, "geometry": {"type": "Point", "coordinates": [-28.10246250160726, 12.24901467187335]}}, {"type": "Feature", "properties": {"norad_id": 44542, "name": "BEIDOU-3 M24 (C46)", "group": "beidou", "lat": 38.03922086964915, "lon": -24.70979911621646, "alt_km": 21531.375948754987, "timestamp": "2025-12-02T08:59:32.979637+00:00", "meta": {"OBJECT_NAME": "BEIDOU-3 M24 (C46)", "OBJECT_ID": "2019-061A", "EPOCH": "2025-12-01T02:32:46.252896", "MEAN_MOTION": 1.86229258, "ECCENTRICITY": 0.00095598, "INCLINATION": 54.4002, "RA_OF_ASC_NODE": 189.409, "ARG_OF_PERICENTER": 23.5384, "MEAN_ANOMALY": 336.5991, "EPHEMERIS_TYPE": 0, "CLASSIFICATION_TYPE": "U", "NORAD_CAT_ID": 44542, "ELEMENT_SET_NO": 999, "REV_AT_EPOCH": 4210, "BSTAR": 0, "MEAN_MOTION_DOT": 1.18e-06, "MEAN_MOTION_DDOT": 0}, "tle": {"line1": "1 44542U 19061A   25335.10609089  .00000118  00000+0  00000+0 0  9995", "line2": "2 44542  54.4002 189.4090 0009559  23.5384 336.5991  1.86229258 42106"}}, "geometry": {"type": "Point", "coordinates": [-24.70979911621646, 38.03922086964915]}}]}